BEIDOU IGSO-6           
1 41434U 16021A   20036.47256760 -.00000124  00000-0  00000+0 0  9991
2 41434  56.8493  61.9352 0040274 210.3834 128.4427  1.00286256 14189
IRNSS-1G                
1 41469U 16027A   20036.48521674 -.00000329  00000-0  00000+0 0  9992
2 41469   2.3769 229.9928 0003384 206.0771   3.2008  1.00267689 13887
JCSAT 2B                
1 41471U 16028A   20036.51994058 -.00000160  00000-0  00000+0 0  9993
2 41471   0.0164  89.6351 0002241 220.7621 165.8914  1.00270379 13783
THAICOM 8               
1 41552U 16031A   20036.09173479 -.00000116  00000-0  00000-0 0  9998
2 41552   0.0561  51.4703 0004306 304.5299 250.2688  1.00272921 13410
INTELSAT 31 (IS-31)     
1 41581U 16035A   20036.16138319 -.00000144  00000-0  00000-0 0  9997
2 41581   0.0233 200.9108 0002724   9.4071 247.4795  1.00271334 13345
BEIDOU-2 G7             
1 41586U 16037A   20036.02323434 -.00000348  00000-0  00000+0 0  9998
2 41586   1.2437  58.6699 0007990 357.4534 197.4559  1.00270862 13473
ABS-2A (MONGOLSAT-1)    
1 41588U 16038A   20036.48242052 -.00000078  00000-0  00000+0 0  9997
2 41588   0.0090  96.4382 0001468 159.2001 127.8442  1.00268685 13408
EUTELSAT 117 WEST B     
1 41589U 16038B   20036.30062068 -.00000005  00000-0  00000+0 0  9996
2 41589   0.0266 116.6302 0000760 310.1602  59.3388  1.00271273 13405
BRISAT                  
1 41591U 16039A   20035.89601598 -.00000190  00000-0  00000-0 0  9996
2 41591   0.0158  88.0390 0002360 225.7674 293.7765  1.00268878 13315
ECHOSTAR 18             
1 41592U 16039B   20036.06160843 -.00000275  00000-0  00000+0 0  9993
2 41592   0.0184  87.2237 0001774 222.0313 146.2456  1.00271642 13327
MUOS-5                  
1 41622U 16041A   20035.37165644 -.00000103  00000-0  00000-0 0  9998
2 41622   7.5315 308.7136 0198429 215.3629 358.6972  1.00271921 13778
TIANTONG-1 1            
1 41725U 16048A   20035.82410550 -.00000304  00000-0  00000-0 0  9991
2 41725   3.1749 331.9598 0005904  16.3877 184.0877  1.00268291 12954
JCSAT-16                
1 41729U 16050A   20035.77440434 -.00000349  00000-0  00000-0 0  9995
2 41729   0.0406  93.1647 0004925 195.6348 248.3745  1.00271962 12757
USA 270                 
1 41744U 16052A   20030.55341952  .00000152  00000-0  00000+0 0  9990
2 41744   0.2295  97.3210 0000365 117.8771 144.8209  1.00136952  4782
INTELSAT 36 (IS-36)     
1 41747U 16053A   20036.41438465 -.00000018  00000-0  00000+0 0  9993
2 41747   0.0087  43.7813 0001051 301.0219   7.8809  1.00270988 12661
INTELSAT 33E (IS-33E)   
1 41748U 16053B   20036.16129980  .00000056  00000-0  00000+0 0  9996
2 41748   0.0121  34.1439 0001832 267.2076 311.4602  1.00272327 12912
INSAT-3DR               
1 41752U 16054A   20036.03191022 -.00000071  00000-0  00000-0 0  9993
2 41752   0.0451  99.4539 0013194 178.7939 301.8880  1.00271795 12500
GSAT-18                 
1 41793U 16060A   20036.48224604 -.00000071  00000-0  00000+0 0  9996
2 41793   0.0047 241.0509 0000150 331.3194 170.3085  1.00271395 12238
SKY MUSTER 2            
1 41794U 16060B   20036.42458306 -.00000239  00000-0  00000+0 0  9995
2 41794   0.0087  72.5570 0001792 234.3351 125.7766  1.00270783 12272
HIMAWARI-9              
1 41836U 16064A   20035.77771932 -.00000268  00000-0  00000-0 0  9999
2 41836   0.0429 277.6476 0001116  22.2734 255.1791  1.00270714 11887
SHIJIAN-17 (SJ-17)      
1 41838U 16065A   20036.72179851 -.00000356  00000-0  00000+0 0  9997
2 41838   0.0538 122.6972 0002289 197.8550 189.9486  1.00271709 11933
GOES 16                 
1 41866U 16071A   20036.16539605 -.00000241  00000-0  00000-0 0  9994
2 41866   0.0362  89.5476 0000692 247.5998 141.9622  1.00271443 11816
TIANLIAN 1-04           
1 41869U 16072A   20036.00550580 -.00000099  00000-0  00000-0 0  9997
2 41869   0.5348 282.2856 0012260 161.1126 130.1656  1.00270654 12002
WGS F8 (USA 272)        
1 41879U 16075A   20035.89601598 -.00000196  00000-0  00000-0 0  9991
2 41879   0.0158  82.4911 0000241 272.0030 252.3818  1.00271691 11537
FENGYUN 4A              
1 41882U 16077A   20036.03452280 -.00000323  00000-0  00000-0 0  9998
2 41882   0.0434  57.4694 0004204  38.4146 155.8654  1.00270406 11676
ECHOSTAR 19             
1 41893U 16079A   20036.44813676 -.00000133  00000-0  00000+0 0  9995
2 41893   0.0172  96.8847 0001711 214.4147 247.9739  1.00271560 11434
JCSAT-15                
1 41903U 16082A   20036.09979927 -.00000344  00000-0  00000+0 0  9998
2 41903   0.0045 103.6725 0001634 207.3532 329.6670  1.00270972 11472
STAR ONE D1             
1 41904U 16082B   20036.45075385 -.00000205  00000-0  00000+0 0  9990
2 41904   0.0566 274.7277 0001817  49.9816 248.5958  1.00270976 11484
TJS-2                   
1 41911U 17001A   20036.10327088 -.00000335  00000-0  00000+0 0  9996
2 41911   0.2071 280.5459 0005702  42.1210 316.7521  1.00268889 11420
SBIRS GEO-4 (USA 273)   
1 41937U 17004A   20035.82896310  .00000143  00000-0  00000-0 0  9991
2 41937   4.0624 311.9207 0001984 359.4967 322.0421  1.00272235 11299
HISPASAT 36W-1          
1 41942U 17006A   20036.06432807 -.00000238  00000-0  00000-0 0  9999
2 41942   0.0167 325.5904 0000918 348.9131 167.3205  1.00271749 10939
TELKOM 3S               
1 41944U 17007A   20036.41926167 -.00000357  00000-0  00000+0 0  9999
2 41944   0.0180 100.5911 0002527 212.3926  90.9906  1.00267967 10913
INTELSAT 32E (IS-32E)   
1 41945U 17007B   20036.45895404 -.00000263  00000-0  00000+0 0  9999
2 41945   0.0162  83.8007 0000479 174.7069 358.5845  1.00269430 10941
ECHOSTAR 23             
1 42070U 17014A   20036.06715975 -.00000263  00000-0  00000-0 0  9999
2 42070   0.0274  91.1704 0002040 226.6433 133.1512  1.00268851 10640
WGS F9 (USA 275)        
1 42075U 17016A   20036.33035495  .00000079  00000-0  00000+0 0  9991
2 42075   0.0073  53.1306 0000055 348.4644 269.0481  1.00270721 10620
SES-10                  
1 42432U 17017A   20036.53856135 -.00000267  00000-0  00000+0 0  9993
2 42432   0.0127  77.9040 0002788 237.1528 307.0535  1.00269401 10453
CHINASAT 16 (SJ-13)     
1 42662U 17018A   20036.49632567 -.00000347  00000-0  99999+0 0  9999
2 42662   0.0630  90.1957 0006655 152.0292 182.0722  1.00272963 10446
KOREASAT 7              
1 42691U 17023A   20035.95418701 -.00000355  00000-0  00000+0 0  9993
2 42691   0.0220  62.2454 0001152 222.4277 309.2738  1.00271565 10130
SGDC                    
1 42692U 17023B   20035.83438724 -.00000242  00000-0  00000-0 0  9994
2 42692   0.0291 311.6425 0001920   4.7316  43.5940  1.00272447 10128
GSAT-9                  
1 42695U 17024A   20036.02876155 -.00000279  00000-0  00000-0 0  9994
2 42695   0.0866 279.0995 0002308  24.4437 298.7201  1.00269643 10018
INMARSAT 5-F4           
1 42698U 17025A   20036.41993884  .00000081  00000-0  00000+0 0  9999
2 42698   0.0176  85.9819 0000700 194.4528  62.2547  1.00271358  9962
SES-15                  
1 42709U 17026A   20036.13213208  .00000067  00000-0  00000-0 0  9992
2 42709   0.0116  73.6922 0000725 244.5797  94.8655  1.00271450 10843
QZS-2  (MICHIBIKI-2)    
1 42738U 17028A   20033.98486920 -.00000128  00000-0  00000-0 0  9998
2 42738  43.2160 276.3085 0752389 269.8821  81.7075  1.00276840  9828
VIASAT-2                
1 42740U 17029A   20036.06715975 -.00000258  00000-0  00000+0 0  9992
2 42740   0.0017 111.2640 0000263 194.1492 143.5281  1.00271107  9881
EUTELSAT 172B           
1 42741U 17029B   20036.46577296 -.00000000  00000-0  00000+0 0  9994
2 42741   0.0185 101.5899 0000229 202.7200 170.4275  1.00271228 10407
GSAT-19                 
1 42747U 17031A   20036.26091229  .00000132  00000-0  00000+0 0  9993
2 42747   0.0906 270.1895 0005343 101.7485 264.7324  1.00271836  9830
ECHOSTAR 21             
1 42749U 17032A   20036.34632615  .00000079  00000-0  00000+0 0  9995
2 42749   5.7659 313.3667 0002145  11.1667 305.3623  1.00271191  9815
CHINASAT 9A (ZX 9A)     
1 42763U 17035A   20036.02688286 -.00000305  00000-0  00000-0 0  9998
2 42763   0.0243 152.3842 0001446 270.0436 183.2563  1.00267780 10342
BULGARIASAT-1           
1 42801U 17038A   20036.32434889  .00000017  00000-0  00000+0 0  9993
2 42801   0.0188  86.0065 0002497 233.2721 294.3022  1.00272904  9603
HELLAS-SAT 3            
1 42814U 17040A   20036.47526716  .00000158  00000-0  00000+0 0  9993
2 42814   0.0673  42.4570 0004214 297.7384   4.9483  1.00271737  9566
GSAT-17                 
1 42815U 17040B   20036.48617167 -.00000252  00000-0  00000+0 0  9992
2 42815   0.1192 276.3106 0005344 350.4198 136.9061  1.00272405  9574
INTELSAT 35E (IS-35E)   
1 42818U 17041A   20036.46061153 -.00000232  00000-0  00000+0 0  9990
2 42818   0.0427 245.1766 0002146  75.4945 305.6970  1.00273750  9538
COSMOS 2520             
1 42907U 17046A   20036.18939480  .00000143  00000-0  00000-0 0  9991
2 42907   0.0252 114.4410 0000197 260.3994 233.1178  1.00273074  9095
TDRS 13                 
1 42915U 17047A   20036.29982698 -.00000085  00000-0  00000+0 0  9997
2 42915   5.7774 330.1891 0013201  75.8044 185.4528  1.00272099  9072
QZS-3 (MICHIBIKI-3)     
1 42917U 17048A   20035.77501500 -.00000341  00000-0  00000-0 0  9997
2 42917   0.0545 202.2297 0001644 133.9763 204.1728  1.00267266  8956
AMAZONAS 5              
1 42934U 17053A   20036.06160843 -.00000276  00000-0  00000+0 0  9992
2 42934   0.0387 318.7207 0005289 359.5596 137.5492  1.00270342  8824
ASIASAT 9               
1 42942U 17057A   20036.70722769 -.00000354  00000-0  00000+0 0  9994
2 42942   0.0161  85.6360 0002602 215.7157 210.6649  1.00272527  8649
INTELSAT 37E (IS-37E)   
1 42950U 17059A   20036.17683281 -.00000134  00000-0  00000-0 0  9998
2 42950   0.0164  94.3523 0002520 205.5018 240.5858  1.00271991  8751
BSAT-4A                 
1 42951U 17059B   20036.09979927 -.00000344  00000-0  00000-0 0  9998
2 42951   0.0529 336.8496 0003509  32.7975 270.8193  1.00271450  8501
